{"updated_at":"2026-06-14T00:15:38.702233Z","count":200,"data":[{"NORAD_CAT_ID":"69379","OBJECT_NAME":"STARLINK-37383","OBJECT_ID":"2026-123AC","EPOCH":"2026-06-13T20:00:01.999008","TLE_LINE1":"1 69379U 26123AC  26164.83335647 -.02135444  12155-2 -67342-2 0  9991","TLE_LINE2":"2 69379  53.1547 257.9885 0000826  54.5165 314.3399 15.90820609  2753"},{"NORAD_CAT_ID":"69380","OBJECT_NAME":"STARLINK-37411","OBJECT_ID":"2026-123AD","EPOCH":"2026-06-13T20:00:01.999008","TLE_LINE1":"1 69380U 26123AD  26164.83335647 -.01853632  00000-0 -70056-2 0  9998","TLE_LINE2":"2 69380  53.1553 258.0349 0000809  53.9094 292.6798 15.90066799  2757"},{"NORAD_CAT_ID":"69381","OBJECT_NAME":"STARLINK-37427","OBJECT_ID":"2026-123AE","EPOCH":"2026-06-13T20:00:01.999008","TLE_LINE1":"1 69381U 26123AE  26164.83335647 -.02065269  11427-2 -64773-2 0  9997","TLE_LINE2":"2 69381  53.1552 258.0023 0000841  57.7383 304.6252 15.90919332  2664"},{"NORAD_CAT_ID":"69382","OBJECT_NAME":"QIANFAN-165","OBJECT_ID":"2026-124A","EPOCH":"2026-06-12T21:11:41.393472","TLE_LINE1":"1 69382U 26124A   26163.88311798 -.02084539  00000-0 -10644+1 0  9994","TLE_LINE2":"2 69382  88.9978   2.5286 0004116 184.3071 175.8085 14.19919653  1203"},{"NORAD_CAT_ID":"69383","OBJECT_NAME":"QIANFAN-166","OBJECT_ID":"2026-124B","EPOCH":"2026-06-13T19:04:51.753216","TLE_LINE1":"1 69383U 26124B   26164.79504344 -.01966168  00000-0 -99595+0 0  9994","TLE_LINE2":"2 69383  88.9981   2.4246 0000590 340.7303  19.3865 14.20107670  1333"},{"NORAD_CAT_ID":"69384","OBJECT_NAME":"QIANFAN-167","OBJECT_ID":"2026-124C","EPOCH":"2026-06-12T21:08:46.152672","TLE_LINE1":"1 69384U 26124C   26163.88108973 -.02041980  00000-0 -10244+1 0  9994","TLE_LINE2":"2 69384  88.9978   2.5284 0002106 162.2755 197.8509 14.20776910  1208"},{"NORAD_CAT_ID":"69385","OBJECT_NAME":"QIANFAN-168","OBJECT_ID":"2026-124D","EPOCH":"2026-06-13T00:30:54.133632","TLE_LINE1":"1 69385U 26124D   26164.02145988  .00000104  00000-0  38459-4 0  9990","TLE_LINE2":"2 69385  88.9982   2.5154 0003353 123.5245 236.6268 14.24420262  1225"},{"NORAD_CAT_ID":"69386","OBJECT_NAME":"QIANFAN-169","OBJECT_ID":"2026-124E","EPOCH":"2026-06-13T19:01:12.667872","TLE_LINE1":"1 69386U 26124E   26164.79250773 -.01713149  00000-0 -87798+0 0  9992","TLE_LINE2":"2 69386  88.9978   2.4236 0008169 202.3146 157.7689 14.19567789  1339"},{"NORAD_CAT_ID":"69387","OBJECT_NAME":"QIANFAN-170","OBJECT_ID":"2026-124F","EPOCH":"2026-06-13T19:02:03.247296","TLE_LINE1":"1 69387U 26124F   26164.79309314 -.02088106  00000-0 -10304+1 0  9998","TLE_LINE2":"2 69387  88.9974   2.4249 0003867 117.7396 242.4187 14.21745551  1339"},{"NORAD_CAT_ID":"69388","OBJECT_NAME":"QIANFAN-171","OBJECT_ID":"2026-124G","EPOCH":"2026-06-13T18:59:02.743008","TLE_LINE1":"1 69388U 26124G   26164.79100397 -.01724011  00000-0 -86631+0 0  9995","TLE_LINE2":"2 69388  88.9981   2.4235 0022197 187.5923 172.4935 14.20530017  1332"},{"NORAD_CAT_ID":"69389","OBJECT_NAME":"QIANFAN-172","OBJECT_ID":"2026-124H","EPOCH":"2026-06-13T20:34:16.387104","TLE_LINE1":"1 69389U 26124H   26164.85713411 -.01443543  00000-0 -61077+0 0  9995","TLE_LINE2":"2 69389  88.9977   2.4156 0003179 174.9675 185.1552 14.29008880  1347"},{"NORAD_CAT_ID":"69390","OBJECT_NAME":"QIANFAN-173","OBJECT_ID":"2026-124J","EPOCH":"2026-06-13T19:01:00.716160","TLE_LINE1":"1 69390U 26124J   26164.79236940  .00000103  00000-0  37327-4 0  9991","TLE_LINE2":"2 69390  88.9984   2.4233 0002523 170.3122 189.8120 14.25636559  1339"},{"NORAD_CAT_ID":"69391","OBJECT_NAME":"QIANFAN-174","OBJECT_ID":"2026-124K","EPOCH":"2026-06-13T12:16:14.205792","TLE_LINE1":"1 69391U 26124K   26164.51127553 -.00000010  00000-0 -10263-4 0  9990","TLE_LINE2":"2 69391  88.9981   2.4554 0002053 166.0475 194.0775 14.25793285  1293"},{"NORAD_CAT_ID":"69392","OBJECT_NAME":"QIANFAN-175","OBJECT_ID":"2026-124L","EPOCH":"2026-06-13T19:00:25.600608","TLE_LINE1":"1 69392U 26124L   26164.79196297  .00000102  00000-0  37113-4 0  9995","TLE_LINE2":"2 69392  88.9984   2.4232 0002704 178.2234 181.8969 14.25625551  1335"},{"NORAD_CAT_ID":"69393","OBJECT_NAME":"QIANFAN-176","OBJECT_ID":"2026-124M","EPOCH":"2026-06-13T20:41:15.191232","TLE_LINE1":"1 69393U 26124M   26164.86198138  .00000103  00000-0  37243-4 0  9995","TLE_LINE2":"2 69393  88.9984   2.4152 0001820 177.8095 182.3106 14.25634274  1347"},{"NORAD_CAT_ID":"69394","OBJECT_NAME":"QIANFAN-177","OBJECT_ID":"2026-124N","EPOCH":"2026-06-13T20:40:34.540896","TLE_LINE1":"1 69394U 26124N   26164.86151089  .00000015  00000-0  11169-6 0  9993","TLE_LINE2":"2 69394  88.9981   2.4149 0002835 162.7084 197.4207 14.25688991  1343"},{"NORAD_CAT_ID":"69395","OBJECT_NAME":"QIANFAN-178","OBJECT_ID":"2026-124P","EPOCH":"2026-06-13T00:27:53.635392","TLE_LINE1":"1 69395U 26124P   26164.01937078  .00000106  00000-0  37987-4 0  9996","TLE_LINE2":"2 69395  88.9642   2.5838 0002256 195.3700 164.7425 14.26159618  1224"},{"NORAD_CAT_ID":"69396","OBJECT_NAME":"QIANFAN-179","OBJECT_ID":"2026-124Q","EPOCH":"2026-06-13T20:38:29.184864","TLE_LINE1":"1 69396U 26124Q   26164.86006001 -.01971323  00000-0 -94572+0 0  9992","TLE_LINE2":"2 69396  88.9978   2.4153 0004353 107.3109 252.8559 14.22997940  1346"},{"NORAD_CAT_ID":"69397","OBJECT_NAME":"QIANFAN-180","OBJECT_ID":"2026-124R","EPOCH":"2026-06-13T20:39:52.445088","TLE_LINE1":"1 69397U 26124R   26164.86102367  .00000104  00000-0  37314-4 0  9998","TLE_LINE2":"2 69397  88.9984   2.4151 0002315 170.7781 189.3456 14.26489128  1346"},{"NORAD_CAT_ID":"69398","OBJECT_NAME":"QIANFAN-181","OBJECT_ID":"2026-124S","EPOCH":"2026-06-13T20:51:18.817056","TLE_LINE1":"1 69398U 26124S   26164.86896779  .00000097  00000-0  37938-4 0  9999","TLE_LINE2":"2 69398  88.9984   2.4163 0002085 140.3432 219.7911 14.21114977  1346"},{"NORAD_CAT_ID":"69399","OBJECT_NAME":"QIANFAN-182","OBJECT_ID":"2026-124T","EPOCH":"2026-06-13T05:33:40.695264","TLE_LINE1":"1 69399U 26124T   26164.23172101  .00000103  00000-0  37548-4 0  9992","TLE_LINE2":"2 69399  88.9988   2.4869 0002478 179.1552 180.9646 14.25276588  1258"},{"NORAD_CAT_ID":"69400","OBJECT_NAME":"CZ-6A R/B","OBJECT_ID":"2026-124U","EPOCH":"2026-06-13T20:54:09.705024","TLE_LINE1":"1 69400U 26124U   26164.87094566  .00000315  00000-0  60874-4 0  9996","TLE_LINE2":"2 69400  89.0257   2.3536 0100191  73.1023 288.1144 14.57302430  1377"},{"NORAD_CAT_ID":"69329","OBJECT_NAME":"STARLINK-37733","OBJECT_ID":"2026-122A","EPOCH":"2026-06-13T20:00:01.999008","TLE_LINE1":"1 69329U 26122A   26164.83335647 -.00074540  00000-0 -39110-3 0  9999","TLE_LINE2":"2 69329  97.2837 194.0797 0000799  87.3041  54.0809 15.80852268  2814"},{"NORAD_CAT_ID":"69330","OBJECT_NAME":"STARLINK-37772","OBJECT_ID":"2026-122B","EPOCH":"2026-06-13T20:00:01.999008","TLE_LINE1":"1 69330U 26122B   26164.83335647 -.00057142  00000-0 -29918-3 0  9995","TLE_LINE2":"2 69330  97.2833 194.0924 0001374  87.0821  84.1469 15.80841489  2760"},{"NORAD_CAT_ID":"69331","OBJECT_NAME":"STARLINK-37768","OBJECT_ID":"2026-122C","EPOCH":"2026-06-13T20:00:01.999008","TLE_LINE1":"1 69331U 26122C   26164.83335647 -.00087432  00000-0 -45951-3 0  9996","TLE_LINE2":"2 69331  97.2833 194.0958 0001095  96.8110  83.8557 15.80853585  2761"},{"NORAD_CAT_ID":"69332","OBJECT_NAME":"STARLINK-37833","OBJECT_ID":"2026-122D","EPOCH":"2026-06-13T20:00:01.999008","TLE_LINE1":"1 69332U 26122D   26164.83335647 -.00027473  00000-0 -14306-3 0  9996","TLE_LINE2":"2 69332  97.2832 194.0985 0001193  92.3387  91.1246 15.80828725  2762"},{"NORAD_CAT_ID":"69333","OBJECT_NAME":"STARLINK-37818","OBJECT_ID":"2026-122E","EPOCH":"2026-06-13T20:00:01.999008","TLE_LINE1":"1 69333U 26122E   26164.83335647 -.00006263  00000-0 -31975-4 0  9993","TLE_LINE2":"2 69333  97.2831 194.0942 0001290  95.8630  76.5797 15.80818615  2813"},{"NORAD_CAT_ID":"69334","OBJECT_NAME":"STARLINK-37868","OBJECT_ID":"2026-122F","EPOCH":"2026-06-13T20:00:01.999008","TLE_LINE1":"1 69334U 26122F   26164.83335647 -.01200128  00000-0 -64312-2 0  9990","TLE_LINE2":"2 69334  97.2826 194.1101 0001437  87.9658 124.1012 15.82754112  2814"},{"NORAD_CAT_ID":"69335","OBJECT_NAME":"STARLINK-37877","OBJECT_ID":"2026-122G","EPOCH":"2026-06-13T20:00:01.999008","TLE_LINE1":"1 69335U 26122G   26164.83335647 -.01199667  00000-0 -64310-2 0  9994","TLE_LINE2":"2 69335  97.2826 194.1103 0001543  81.1946 131.6152 15.82744498  2815"},{"NORAD_CAT_ID":"69336","OBJECT_NAME":"STARLINK-37791","OBJECT_ID":"2026-122H","EPOCH":"2026-06-13T20:00:01.999008","TLE_LINE1":"1 69336U 26122H   26164.83335647 -.02066617  00000-0 -10633-1 0  9992","TLE_LINE2":"2 69336  97.2822 194.1136 0001699  90.7882 128.9856 15.84254109  2812"},{"NORAD_CAT_ID":"69337","OBJECT_NAME":"STARLINK-37765","OBJECT_ID":"2026-122J","EPOCH":"2026-06-13T20:00:01.999008","TLE_LINE1":"1 69337U 26122J   26164.83335647  .00006282  00000-0  33546-4 0  9992","TLE_LINE2":"2 69337  97.2831 194.1167 0000839  87.6572 138.7057 15.80793416  2865"},{"NORAD_CAT_ID":"69338","OBJECT_NAME":"STARLINK-37788","OBJECT_ID":"2026-122K","EPOCH":"2026-06-13T20:00:01.999008","TLE_LINE1":"1 69338U 26122K   26164.83335647 -.00026317  00000-0 -13715-3 0  9991","TLE_LINE2":"2 69338  97.2830 194.1182 0001366  86.8853 143.4424 15.80802444  2819"},{"NORAD_CAT_ID":"69339","OBJECT_NAME":"STARLINK-37743","OBJECT_ID":"2026-122L","EPOCH":"2026-06-13T20:00:01.999008","TLE_LINE1":"1 69339U 26122L   26164.83335647 -.00060187  00000-0 -31537-3 0  9997","TLE_LINE2":"2 69339  97.2830 194.1121 0001571  95.5272 121.4522 15.80834394  2817"},{"NORAD_CAT_ID":"69340","OBJECT_NAME":"STARLINK-37780","OBJECT_ID":"2026-122M","EPOCH":"2026-06-13T20:00:01.999008","TLE_LINE1":"1 69340U 26122M   26164.83335647 -.00038094  00000-0 -19888-3 0  9996","TLE_LINE2":"2 69340  97.2835 194.1148 0001285  85.5184 137.0031 15.80829314  2865"},{"NORAD_CAT_ID":"69341","OBJECT_NAME":"STARLINK-37781","OBJECT_ID":"2026-122N","EPOCH":"2026-06-13T20:00:01.999008","TLE_LINE1":"1 69341U 26122N   26164.83335647 -.00006897  00000-0 -35283-4 0  9991","TLE_LINE2":"2 69341  97.2831 194.1112 0000871  96.5008 114.8985 15.80825789  2818"}]}